FENGYUN 1C DEB          
1 29945U 99025JT  17345.92803472  .00000299  00000-0  21442-3 0  9995
2 29945  99.1169   4.5231 0030631 231.4539 191.4345 14.04596874559386
